{
  "links" : {
    "next" : "https://api.nasa.gov/neo/rest/v1/feed?start_date=2012-10-09&end_date=2012-10-09&detailed=true&api_key=t0TVs3DtDT2H8Oy2Zy8m2eVrNsAVKAexjcZXUckd",
    "prev" : "https://api.nasa.gov/neo/rest/v1/feed?start_date=2012-10-07&end_date=2012-10-07&detailed=true&api_key=t0TVs3DtDT2H8Oy2Zy8m2eVrNsAVKAexjcZXUckd",
    "self" : "https://api.nasa.gov/neo/rest/v1/feed?start_date=2012-10-08&end_date=2012-10-08&detailed=true&api_key=t0TVs3DtDT2H8Oy2Zy8m2eVrNsAVKAexjcZXUckd"
  },
  "element_count" : 9,
  "near_earth_objects" : {
    "2012-10-08" : [ {
      "links" : {
        "self" : "https://api.nasa.gov/neo/rest/v1/neo/3604990?api_key=t0TVs3DtDT2H8Oy2Zy8m2eVrNsAVKAexjcZXUckd"
      },
      "neo_reference_id" : "3604990",
      "name" : "(2012 KP24)",
      "nasa_jpl_url" : "http://ssd.jpl.nasa.gov/sbdb.cgi?sstr=3604990",
      "absolute_magnitude_h" : 26.4,
      "estimated_diameter" : {
        "kilometers" : {
          "estimated_diameter_min" : 0.0139493823,
          "estimated_diameter_max" : 0.0311917671
        },
        "meters" : {
          "estimated_diameter_min" : 13.9493822934,
          "estimated_diameter_max" : 31.1917670523
        },
        "miles" : {
          "estimated_diameter_min" : 0.0086677416,
          "estimated_diameter_max" : 0.0193816595
        },
        "feet" : {
          "estimated_diameter_min" : 45.7656914036,
          "estimated_diameter_max" : 102.3351970157
        }
      },
      "is_potentially_hazardous_asteroid" : false,
      "close_approach_data" : [ {
        "close_approach_date" : "2012-10-08",
        "epoch_date_close_approach" : 1349679600000,
        "relative_velocity" : {
          "kilometers_per_second" : "8.5123382729",
          "kilometers_per_hour" : "30644.4177822832",
          "miles_per_hour" : "19041.2494825526"
        },
        "miss_distance" : {
          "astronomical" : "0.4673037448",
          "lunar" : "181.7811584473",
          "kilometers" : "69907648",
          "miles" : "43438596"
        },
        "orbiting_body" : "Earth"
      } ],
      "orbital_data" : {
        "orbit_id" : "9",
        "orbit_determination_date" : "2017-04-06 08:49:42",
        "orbit_uncertainty" : "6",
        "minimum_orbit_intersection" : ".000497085",
        "jupiter_tisserand_invariant" : "4.419",
        "epoch_osculation" : "2458000.5",
        "eccentricity" : ".3693984789761389",
        "semi_major_axis" : "1.498387395279992",
        "inclination" : "18.4701151678907",
        "ascending_node_longitude" : "67.46327011834654",
        "orbital_period" : "669.9379706835334",
        "perihelion_distance" : ".9448853705465444",
        "perihelion_argument" : "221.461052975838",
        "aphelion_distance" : "2.05188942001344",
        "perihelion_time" : "2458120.637148708032",
        "mean_anomaly" : "295.4427194345106",
        "mean_motion" : ".5373631824938871",
        "equinox" : "J2000"
      }
    }, {
      "links" : {
        "self" : "https://api.nasa.gov/neo/rest/v1/neo/3612168?api_key=t0TVs3DtDT2H8Oy2Zy8m2eVrNsAVKAexjcZXUckd"
      },
      "neo_reference_id" : "3612168",
      "name" : "(2012 UU9)",
      "nasa_jpl_url" : "http://ssd.jpl.nasa.gov/sbdb.cgi?sstr=3612168",
      "absolute_magnitude_h" : 23.9,
      "estimated_diameter" : {
        "kilometers" : {
          "estimated_diameter_min" : 0.04411182,
          "estimated_diameter_max" : 0.0986370281
        },
        "meters" : {
          "estimated_diameter_min" : 44.1118199997,
          "estimated_diameter_max" : 98.6370281305
        },
        "miles" : {
          "estimated_diameter_min" : 0.0274098057,
          "estimated_diameter_max" : 0.0612901888
        },
        "feet" : {
          "estimated_diameter_min" : 144.7238235278,
          "estimated_diameter_max" : 323.6123073718
        }
      },
      "is_potentially_hazardous_asteroid" : false,
      "close_approach_data" : [ {
        "close_approach_date" : "2012-10-08",
        "epoch_date_close_approach" : 1349679600000,
        "relative_velocity" : {
          "kilometers_per_second" : "7.912771579",
          "kilometers_per_hour" : "28485.9776844984",
          "miles_per_hour" : "17700.0787451263"
        },
        "miss_distance" : {
          "astronomical" : "0.0245159556",
          "lunar" : "9.5367059708",
          "kilometers" : "3667534.75",
          "miles" : "2278900.5"
        },
        "orbiting_body" : "Earth"
      } ],
      "orbital_data" : {
        "orbit_id" : "10",
        "orbit_determination_date" : "2017-04-06 08:48:27",
        "orbit_uncertainty" : "7",
        "minimum_orbit_intersection" : ".0226563",
        "jupiter_tisserand_invariant" : "4.358",
        "epoch_osculation" : "2458000.5",
        "eccentricity" : ".3880058068573355",
        "semi_major_axis" : "1.551912340128347",
        "inclination" : "2.646710392207668",
        "ascending_node_longitude" : "165.0253389831142",
        "orbital_period" : "706.1536472461027",
        "perihelion_distance" : ".9497613404249917",
        "perihelion_argument" : "175.8151417699317",
        "aphelion_distance" : "2.154063339831701",
        "perihelion_time" : "2458299.960186567958",
        "mean_anomaly" : "207.3339795313788",
        "mean_motion" : ".5098040651690295",
        "equinox" : "J2000"
      }
    }, {
      "links" : {
        "self" : "https://api.nasa.gov/neo/rest/v1/neo/2483408?api_key=t0TVs3DtDT2H8Oy2Zy8m2eVrNsAVKAexjcZXUckd"
      },
      "neo_reference_id" : "2483408",
      "name" : "483408 (1999 TZ4)",
      "nasa_jpl_url" : "http://ssd.jpl.nasa.gov/sbdb.cgi?sstr=2483408",
      "absolute_magnitude_h" : 19.5,
      "estimated_diameter" : {
        "kilometers" : {
          "estimated_diameter_min" : 0.3346223745,
          "estimated_diameter_max" : 0.7482383761
        },
        "meters" : {
          "estimated_diameter_min" : 334.6223744549,
          "estimated_diameter_max" : 748.2383760735
        },
        "miles" : {
          "estimated_diameter_min" : 0.2079246394,
          "estimated_diameter_max" : 0.464933628
        },
        "feet" : {
          "estimated_diameter_min" : 1097.8424710066,
          "estimated_diameter_max" : 2454.8503937571
        }
      },
      "is_potentially_hazardous_asteroid" : false,
      "close_approach_data" : [ {
        "close_approach_date" : "2012-10-08",
        "epoch_date_close_approach" : 1349679600000,
        "relative_velocity" : {
          "kilometers_per_second" : "15.8272855512",
          "kilometers_per_hour" : "56978.2279843448",
          "miles_per_hour" : "35404.0550494947"
        },
        "miss_distance" : {
          "astronomical" : "0.4279981109",
          "lunar" : "166.4912719727",
          "kilometers" : "64027608",
          "miles" : "39784912"
        },
        "orbiting_body" : "Earth"
      } ],
      "orbital_data" : {
        "orbit_id" : "27",
        "orbit_determination_date" : "2017-04-23 06:19:52",
        "orbit_uncertainty" : "0",
        "minimum_orbit_intersection" : ".364596",
        "jupiter_tisserand_invariant" : "4.339",
        "epoch_osculation" : "2458000.5",
        "eccentricity" : ".1570848308864059",
        "semi_major_axis" : "1.514619112256417",
        "inclination" : "32.0087139480495",
        "ascending_node_longitude" : "15.09939548675791",
        "orbital_period" : "680.8533456510954",
        "perihelion_distance" : "1.276695425150299",
        "perihelion_argument" : "61.58255897057085",
        "aphelion_distance" : "1.752542799362534",
        "perihelion_time" : "2457670.606362204135",
        "mean_anomaly" : "174.4306763932261",
        "mean_motion" : ".5287482279399456",
        "equinox" : "J2000"
      }
    } ]
  }
}